{
  "type": "FeatureCollection",
  "features": [
    {
      "type": "Feature",
      "properties": {
        "norad_id": 43260,
        "name": "GAOFEN-1 03",
        "group": "resource",
        "lat": -42.93352386305285,
        "lon": -146.03091583122043,
        "alt_km": 647.8405269686236,
        "timestamp": "2025-12-09T21:34:11.064660+00:00",
        "meta_object_name": "GAOFEN-1 03",
        "meta_object_id": "2018-031B",
        "meta_epoch": "2025-12-09T15:40:52.699872",
        "meta_mean_motion": 14.76427683,
        "meta_eccentricity": 0.00021904,
        "meta_inclination": 98.0803,
        "meta_ra_of_asc_node": 41.3187,
        "meta_arg_of_pericenter": 335.7291,
        "meta_mean_anomaly": 24.3815,
        "meta_ephemeris_type": 0,
        "meta_classification_type": "U",
        "meta_norad_cat_id": 43260,
        "meta_element_set_no": 999,
        "meta_rev_at_epoch": 41472,
        "meta_bstar": 0.0002527277,
        "meta_mean_motion_dot": 1.706e-05,
        "meta_mean_motion_ddot": 0,
        "tle_line1": "1 43260U 18031B   25343.65338773  .00001706  00000+0  25273-3 0  9992",
        "tle_line2": "2 43260  98.0803  41.3187 0002190 335.7291  24.3815 14.76427683414720"
      },
      "geometry": {
        "type": "Point",
        "coordinates": [
          -146.03091583122043,
          -42.93352386305285
        ]
      }
    },
    {
      "type": "Feature",
      "properties": {
        "norad_id": 43262,
        "name": "GAOFEN-1 04",
        "group": "resource",
        "lat": -7.413281729981868,
        "lon": 42.79205105372502,
        "alt_km": 644.09175859076,
        "timestamp": "2025-12-09T21:34:11.064670+00:00",
        "meta_object_name": "GAOFEN-1 04",
        "meta_object_id": "2018-031D",
        "meta_epoch": "2025-12-09T15:05:51.038880",
        "meta_mean_motion": 14.76440091,
        "meta_eccentricity": 0.00012092,
        "meta_inclination": 98.0806,
        "meta_ra_of_asc_node": 41.4631,
        "meta_arg_of_pericenter": 54.3325,
        "meta_mean_anomaly": 305.7997,
        "meta_ephemeris_type": 0,
        "meta_classification_type": "U",
        "meta_norad_cat_id": 43262,
        "meta_element_set_no": 999,
        "meta_rev_at_epoch": 41471,
        "meta_bstar": 0.00020914171,
        "meta_mean_motion_dot": 1.403e-05,
        "meta_mean_motion_ddot": 0,
        "tle_line1": "1 43262U 18031D   25343.62906295  .00001403  00000+0  20914-3 0  9992",
        "tle_line2": "2 43262  98.0806  41.4631 0001209  54.3325 305.7997 14.76440091414716"
      },
      "geometry": {
        "type": "Point",
        "coordinates": [
          42.79205105372502,
          -7.413281729981868
        ]
      }
    },
    {
      "type": "Feature",
      "properties": {
        "norad_id": 43437,
        "name": "SENTINEL-3B",
        "group": "resource",
        "lat": -52.38685375328081,
        "lon": 60.4885535383298,
        "alt_km": 810.6101452174944,
        "timestamp": "2025-12-09T21:34:11.064683+00:00",
        "meta_object_name": "SENTINEL-3B",
        "meta_object_id": "2018-039A",
        "meta_epoch": "2025-12-09T10:02:13.739712",
        "meta_mean_motion": 14.26741127,
        "meta_eccentricity": 0.0001551,
        "meta_inclination": 98.627,
        "meta_ra_of_asc_node": 48.6509,
        "meta_arg_of_pericenter": 106.2359,
        "meta_mean_anomaly": 253.8993,
        "meta_ephemeris_type": 0,
        "meta_classification_type": "U",
        "meta_norad_cat_id": 43437,
        "meta_element_set_no": 999,
        "meta_rev_at_epoch": 39706,
        "meta_bstar": 0.00013773156,
        "meta_mean_motion_dot": 2.9e-06,
        "meta_mean_motion_ddot": 0,
        "tle_line1": "1 43437U 18039A   25343.41821458  .00000290  00000+0  13773-3 0  9996",
        "tle_line2": "2 43437  98.6270  48.6509 0001551 106.2359 253.8993 14.26741127397064"
      },
      "geometry": {
        "type": "Point",
        "coordinates": [
          60.4885535383298,
          -52.38685375328081
        ]
      }
    },
    {
      "type": "Feature",
      "properties": {
        "norad_id": 43461,
        "name": "GAOFEN-5 01",
        "group": "resource",
        "lat": -47.32962055580694,
        "lon": -43.92336604947799,
        "alt_km": 698.0283842621511,
        "timestamp": "2025-12-09T21:34:11.064693+00:00",
        "meta_object_name": "GAOFEN-5 01",
        "meta_object_id": "2018-043A",
        "meta_epoch": "2025-12-09T15:12:42.345216",
        "meta_mean_motion": 14.60405259,
        "meta_eccentricity": 0.00011627,
        "meta_inclination": 98.4321,
        "meta_ra_of_asc_node": 306.5469,
        "meta_arg_of_pericenter": 352.2151,
        "meta_mean_anomaly": 7.903,
        "meta_ephemeris_type": 0,
        "meta_classification_type": "U",
        "meta_norad_cat_id": 43461,
        "meta_element_set_no": 999,
        "meta_rev_at_epoch": 40402,
        "meta_bstar": 0.0002046942,
        "meta_mean_motion_dot": 9.42e-06,
        "meta_mean_motion_ddot": 0,
        "tle_line1": "1 43461U 18043A   25343.63382344  .00000942  00000+0  20469-3 0  9992",
        "tle_line2": "2 43461  98.4321 306.5469 0001162 352.2151   7.9030 14.60405259404024"
      },
      "geometry": {
        "type": "Point",
        "coordinates": [
          -43.92336604947799,
          -47.32962055580694
        ]
      }
    },
    {
      "type": "Feature",
      "properties": {
        "norad_id": 43484,
        "name": "GAOFEN-6",
        "group": "resource",
        "lat": 36.67056472727039,
        "lon": -125.87870233443692,
        "alt_km": 634.6330989731296,
        "timestamp": "2025-12-09T21:34:11.064703+00:00",
        "meta_object_name": "GAOFEN-6",
        "meta_object_id": "2018-048A",
        "meta_epoch": "2025-12-09T14:25:14.572704",
        "meta_mean_motion": 14.76556671,
        "meta_eccentricity": 0.00133069,
        "meta_inclination": 97.8031,
        "meta_ra_of_asc_node": 47.9731,
        "meta_arg_of_pericenter": 72.552,
        "meta_mean_anomaly": 287.7144,
        "meta_ephemeris_type": 0,
        "meta_classification_type": "U",
        "meta_norad_cat_id": 43484,
        "meta_element_set_no": 999,
        "meta_rev_at_epoch": 40541,
        "meta_bstar": 0.0001693861,
        "meta_mean_motion_dot": 1.134e-05,
        "meta_mean_motion_ddot": 0,
        "tle_line1": "1 43484U 18048A   25343.60086311  .00001134  00000+0  16939-3 0  9995",
        "tle_line2": "2 43484  97.8031  47.9731 0013306  72.5520 287.7144 14.76556671405413"
      },
      "geometry": {
        "type": "Point",
        "coordinates": [
          -125.87870233443692,
          36.67056472727039
        ]
      }
    },
    {
      "type": "Feature",
      "properties": {
        "norad_id": 43585,
        "name": "GAOFEN-11 01",
        "group": "resource",
        "lat": -70.68243676758634,
        "lon": 67.85872310720664,
        "alt_km": 424.25830526427035,
        "timestamp": "2025-12-09T21:34:11.064713+00:00",
        "meta_object_name": "GAOFEN-11 01",
        "meta_object_id": "2018-063A",
        "meta_epoch": "2025-12-09T15:40:43.165632",
        "meta_mean_motion": 15.49082711,
        "meta_eccentricity": 0.00046588,
        "meta_inclination": 97.1557,
        "meta_ra_of_asc_node": 46.6133,
        "meta_arg_of_pericenter": 328.5556,
        "meta_mean_anomaly": 31.5416,
        "meta_ephemeris_type": 0,
        "meta_classification_type": "U",
        "meta_norad_cat_id": 43585,
        "meta_element_set_no": 999,
        "meta_rev_at_epoch": 41094,
        "meta_bstar": 0.00035273424,
        "meta_mean_motion_dot": 0.00019078,
        "meta_mean_motion_ddot": 0,
        "tle_line1": "1 43585U 18063A   25343.65327738  .00019078  00000+0  35273-3 0  9998",
        "tle_line2": "2 43585  97.1557  46.6133 0004658 328.5556  31.5416 15.49082711410947"
      },
      "geometry": {
        "type": "Point",
        "coordinates": [
          67.85872310720664,
          -70.68243676758634
        ]
      }
    },
    {
      "type": "Feature",
      "properties": {
        "norad_id": 43613,
        "name": "ICESAT-2",
        "group": "resource",
        "lat": -57.84521265548984,
        "lon": 56.77683722578844,
        "alt_km": 487.96529174081024,
        "timestamp": "2025-12-09T21:34:11.064723+00:00",
        "meta_object_name": "ICESAT-2",
        "meta_object_id": "2018-070A",
        "meta_epoch": "2025-12-09T15:49:04.029888",
        "meta_mean_motion": 15.28272499,
        "meta_eccentricity": 0.00023084,
        "meta_inclination": 92.0044,
        "meta_ra_of_asc_node": 239.9059,
        "meta_arg_of_pericenter": 156.8667,
        "meta_mean_anomaly": 203.2687,
        "meta_ephemeris_type": 0,
        "meta_classification_type": "U",
        "meta_norad_cat_id": 43613,
        "meta_element_set_no": 999,
        "meta_rev_at_epoch": 40351,
        "meta_bstar": 0.00064014193,
        "meta_mean_motion_dot": 0.00017641,
        "meta_mean_motion_ddot": 0,
        "tle_line1": "1 43613U 18070A   25343.65907442  .00017641  00000+0  64014-3 0  9993",
        "tle_line2": "2 43613  92.0044 239.9059 0002308 156.8667 203.2687 15.28272499403517"
      },
      "geometry": {
        "type": "Point",
        "coordinates": [
          56.77683722578844,
          -57.84521265548984
        ]
      }
    }
  ]
}